NORAD_CAT_ID,OBJECT_NAME,OBJECT_TYPE,EPOCH,MEAN_MOTION,ECCENTRICITY,INCLINATION,RA_OF_ASC_NODE,ARG_OF_PERICENTER,MEAN_ANOMALY,BSTAR,MEAN_MOTION_DOT,MEAN_MOTION_DDOT,TLE_LINE0,TLE_LINE1,TLE_LINE2,SEMIMAJOR_AXIS,PERIOD,APOGEE,PERIGEE,DECAYED
56793.0,STARLINK-6052,PAYLOAD,2024-01-18 18:06:13,14.9832865,0.0003013,70.0004,153.472,272.931,87.1504,0.00013797,1.554e-05,0.0,0 STARLINK-6052,1 56793U 23078AC  24018.75431891  .00001554  00000-0  13797-3 0  9998,2 56793  70.0004 153.4720 0003013 272.9310  87.1504 14.98328650 35960,6950.197,96.107,574.156,569.968,0.0
56793.0,STARLINK-6052,PAYLOAD,2024-01-19 13:19:49,14.98332449,0.0002906,70.0012,151.4552,261.5186,98.5643,3.7223e-05,3.51e-06,0.0,0 STARLINK-6052,1 56793U 23078AC  24019.55543889  .00000351  00000-0  37223-4 0  9993,2 56793  70.0012 151.4552 0002906 261.5186  98.5643 14.98332449 35821,6950.185,96.107,574.07,570.031,0.0
56793.0,STARLINK-6052,PAYLOAD,2024-01-19 18:08:13,14.98335435,0.0002836,70.0014,150.9503,257.567,102.5172,7.2786e-05,7.76e-06,0.0,0 STARLINK-6052,1 56793U 23078AC  24019.75571518  .00000776  00000-0  72786-4 0  9999,2 56793  70.0014 150.9503 0002836 257.5670 102.5172 14.98335435 36112,6950.176,96.107,574.012,570.07,0.0
56793.0,STARLINK-6052,PAYLOAD,2024-01-20 14:57:58,14.98378288,0.0003024,70.0021,148.7624,258.9661,101.1158,-0.00096462,-0.00011598,0.0,0 STARLINK-6052,1 56793U 23078AC  24020.62359769 -.00011598  00000-0 -96462-3 0  9991,2 56793  70.0021 148.7624 0003024 258.9661 101.1158 14.98378288 35980,6950.044,96.104,574.01,569.807,0.0
56793.0,STARLINK-6052,PAYLOAD,2024-01-20 18:10:15,14.98326089,0.0002879,70.0016,148.4248,267.9804,92.1025,-0.00018046,-2.245e-05,0.0,0 STARLINK-6052,1 56793U 23078AC  24020.75712922 -.00002245  00000-0 -18046-3 0  9990,2 56793  70.0016 148.4248 0002879 267.9804  92.1025 14.98326089 36265,6950.205,96.107,574.071,570.069,0.0
56793.0,STARLINK-6052,PAYLOAD,2024-01-21 11:47:43,14.98333785,0.0003163,70.0011,146.5736,273.4597,86.62,1.0514e-05,3.2e-07,0.0,0 STARLINK-6052,1 56793U 23078AC  24021.49147910  .00000032  00000-0  10514-4 0  9994,2 56793  70.0011 146.5736 0003163 273.4597  86.6200 14.98333785 36375,6950.181,96.107,574.245,569.848,0.0
56793.0,STARLINK-6052,PAYLOAD,2024-01-21 18:12:15,14.98340189,0.0003048,70.001,145.9003,271.0957,88.9853,7.7926e-05,8.37e-06,0.0,0 STARLINK-6052,1 56793U 23078AC  24021.75851186  .00000837  00000-0  77926-4 0  9993,2 56793  70.0010 145.9003 0003048 271.0957  88.9853 14.98340189 36410,6950.161,96.106,574.145,569.908,0.0
56793.0,STARLINK-6052,PAYLOAD,2024-01-22 07:01:20,14.98328615,0.0002524,70.0021,144.5541,267.4209,92.6661,0.00011656,1.298e-05,0.0,0 STARLINK-6052,1 56793U 23078AC  24022.29259688  .00001298  00000-0  11656-3 0  9991,2 56793  70.0021 144.5541 0002524 267.4209  92.6661 14.98328615 36230,6950.197,96.107,573.816,570.308,0.0
56793.0,STARLINK-6052,PAYLOAD,2024-01-22 11:49:44,14.98323964,0.0002854,70.0013,144.0479,271.3657,88.7175,6.2648e-05,6.54e-06,0.0,0 STARLINK-6052,1 56793U 23078AC  24022.49288155  .00000654  00000-0  62648-4 0  9997,2 56793  70.0013 144.0479 0002854 271.3657  88.7175 14.98323964 36523,6950.212,96.107,574.06,570.093,0.0
56793.0,STARLINK-6052,PAYLOAD,2024-01-22 18:14:17,14.98325791,0.0002713,70.0019,143.3746,270.8986,89.1862,6.4848e-05,6.81e-06,0.0,0 STARLINK-6052,1 56793U 23078AC  24022.75992085  .00000681  00000-0  64848-4 0  9994,2 56793  70.0019 143.3746 0002713 270.8986  89.1862 14.98325791 36305,6950.206,96.107,573.956,570.185,0.0
56793.0,STARLINK-6052,PAYLOAD,2024-01-23 11:51:45,14.98333959,0.0002851,70.0013,141.5227,272.8844,87.1989,-2.8337e-05,-4.31e-06,0.0,0 STARLINK-6052,1 56793U 23078AC  24023.49427698 -.00000431  00000-0 -28337-4 0  9997,2 56793  70.0013 141.5227 0002851 272.8844  87.1989 14.98333959 36674,6950.181,96.107,574.027,570.064,0.0
56793.0,STARLINK-6052,PAYLOAD,2024-01-23 18:16:17,14.98338503,0.0002785,70.0014,140.85,270.2564,89.8276,2.174e-05,1.67e-06,0.0,0 STARLINK-6052,1 56793U 23078AC  24023.76131142  .00000167  00000-0  21740-4 0  9998,2 56793  70.0014 140.8500 0002785 270.2564  89.8276 14.98338503 36452,6950.167,96.106,573.967,570.096,0.0
56793.0,STARLINK-6052,PAYLOAD,2024-01-24 11:53:47,14.9831672,0.0002262,70.003,139.0025,245.6041,114.4882,2.5608e-05,2.13e-06,0.0,0 STARLINK-6052,1 56793U 23078AC  24024.49568453  .00000213  00000-0  25608-4 0  9997,2 56793  70.0030 139.0025 0002262 245.6041 114.4882 14.98316720 36824,6950.234,96.108,573.671,570.527,0.0
56793.0,STARLINK-6052,PAYLOAD,2024-01-24 13:29:55,14.98319665,0.0002323,70.0028,138.8339,242.3784,117.714,-3.8638e-05,-5.54e-06,0.0,0 STARLINK-6052,1 56793U 23078AC  24024.56244530 -.00000554  00000-0 -38638-4 0  9999,2 56793  70.0028 138.8339 0002323 242.3784 117.7140 14.98319665 36578,6950.225,96.108,573.704,570.475,0.0
56793.0,STARLINK-6052,PAYLOAD,2024-01-24 16:42:11,14.9831704,0.0002527,70.0025,138.4961,248.9602,111.1287,-7.4885e-05,-9.86e-06,0.0,0 STARLINK-6052,1 56793U 23078AC  24024.69596864 -.00000986  00000-0 -74885-4 0  9996,2 56793  70.0025 138.4961 0002527 248.9602 111.1287 14.98317040 36596,6950.233,96.108,573.854,570.342,0.0
56793.0,STARLINK-6052,PAYLOAD,2024-01-25 11:55:47,14.98331975,0.0002622,70.0022,136.4773,243.9784,116.1105,-2.8032e-06,-1.26e-06,0.0,0 STARLINK-6052,1 56793U 23078AC  24025.49707839 -.00000126  00000-0 -28032-5 0  9991,2 56793  70.0022 136.4773 0002622 243.9784 116.1105 14.98331975 36973,6950.187,96.107,573.874,570.229,0.0
56793.0,STARLINK-6052,PAYLOAD,2024-01-25 13:31:55,14.98330873,0.0002868,70.0012,136.3077,257.3643,102.7195,-1.7035e-05,-2.96e-06,0.0,0 STARLINK-6052,1 56793U 23078AC  24025.56383986 -.00000296  00000-0 -17035-4 0  9990,2 56793  70.0012 136.3077 0002868 257.3643 102.7195 14.98330873 36722,6950.19,96.107,574.049,570.062,0.0
56793.0,STARLINK-6052,PAYLOAD,2024-01-25 16:44:11,14.98334906,0.0002821,70.0011,135.9705,258.8682,101.216,2.2066e-05,1.7e-06,0.0,0 STARLINK-6052,1 56793U 23078AC  24025.69735595  .00000170  00000-0  22066-4 0  9990,2 56793  70.0011 135.9705 0002821 258.8682 101.2160 14.98334906 36741,6950.178,96.107,574.003,570.082,0.0
56793.0,STARLINK-6052,PAYLOAD,2024-01-26 11:57:48,14.98328172,0.0002762,70.0011,133.9505,257.9086,102.1764,0.00011599,1.291e-05,0.0,0 STARLINK-6052,1 56793U 23078AC  24026.49847760  .00001291  00000-0  11599-3 0  9990,2 56793  70.0011 133.9505 0002762 257.9086 102.1764 14.98328172 37120,6950.199,96.107,573.983,570.144,0.0
56793.0,STARLINK-6052,PAYLOAD,2024-01-26 13:33:56,14.98329114,0.0002731,70.0012,133.7824,256.5688,103.5167,0.00012604,1.411e-05,0.0,0 STARLINK-6052,1 56793U 23078AC  24026.56523669  .00001411  00000-0  12604-3 0  9999,2 56793  70.0012 133.7824 0002731 256.5688 103.5167 14.98329114 36872,6950.196,96.107,573.959,570.163,0.0
56793.0,STARLINK-6052,PAYLOAD,2024-01-27 11:59:49,14.98329026,0.0002536,70.0016,131.4265,255.3369,104.7509,-6.2129e-06,-1.67e-06,0.0,0 STARLINK-6052,1 56793U 23078AC  24027.49987945 -.00000167  00000-0 -62129-5 0  9991,2 56793  70.0016 131.4265 0002536 255.3369 104.7509 14.98329026 37276,6950.196,96.107,573.823,570.298,0.0
56793.0,STARLINK-6052,PAYLOAD,2024-01-27 13:35:57,14.98330641,0.0002523,70.0016,131.2581,253.6018,106.4864,-1.968e-05,-3.28e-06,0.0,0 STARLINK-6052,1 56793U 23078AC  24027.56663875 -.00000328  00000-0 -19680-4 0  9994,2 56793  70.0016 131.2581 0002523 253.6018 106.4864 14.98330641 37024,6950.191,96.107,573.809,570.302,0.0
56793.0,STARLINK-6052,PAYLOAD,2024-01-27 16:48:13,14.98329097,0.0002545,70.0015,130.9212,257.3267,102.7607,5.8816e-06,-2.3e-07,0.0,0 STARLINK-6052,1 56793U 23078AC  24027.70015906 -.00000023  00000-0  58816-5 0  9992,2 56793  70.0015 130.9212 0002545 257.3267 102.7607 14.98329097 37040,6950.196,96.107,573.83,570.292,0.0
56793.0,STARLINK-6052,PAYLOAD,2024-01-28 12:01:50,14.98329048,0.0002491,70.0016,128.9016,255.5379,104.5504,-6.7443e-05,-8.97e-06,0.0,0 STARLINK-6052,1 56793U 23078AC  24028.50128068 -.00000897  00000-0 -67443-4 0  9990,2 56793  70.0016 128.9016 0002491 255.5379 104.5504 14.98329048 37428,6950.196,96.107,573.792,570.33,0.0
56793.0,STARLINK-6052,PAYLOAD,2024-01-28 13:37:58,14.98347321,0.000212,70.0016,128.7335,256.3694,103.7229,-0.00036004,-4.388e-05,0.0,0 STARLINK-6052,1 56793U 23078AC  24028.56803749 -.00004388  00000-0 -36004-3 0  9999,2 56793  70.0016 128.7335 0002120 256.3694 103.7229 14.98347321 37179,6950.139,96.106,573.478,570.531,0.0
56793.0,STARLINK-6052,PAYLOAD,2024-01-28 16:50:14,14.98356829,0.0002257,70.0014,128.3963,262.7041,97.3861,-0.00056193,-6.796e-05,0.0,0 STARLINK-6052,1 56793U 23078AC  24028.70155504 -.00006796  00000-0 -56193-3 0  9990,2 56793  70.0014 128.3963 0002257 262.7041  97.3861 14.98356829 37452,6950.11,96.105,573.544,570.406,0.0
56793.0,STARLINK-6052,PAYLOAD,2024-01-29 12:03:50,14.98335721,0.0002649,70.0008,126.375,268.431,91.6545,8.7683e-05,9.54e-06,0.0,0 STARLINK-6052,1 56793U 23078AC  24029.50267056  .00000954  00000-0  87683-4 0  9992,2 56793  70.0008 126.3750 0002649 268.4310  91.6545 14.98335721 37571,6950.175,96.107,573.881,570.199,0.0
56793.0,STARLINK-6052,PAYLOAD,2024-01-30 12:05:52,14.98327679,0.0002517,70.0028,123.8539,229.1786,130.9155,3.311e-05,3.02e-06,0.0,0 STARLINK-6052,1 56793U 23078AC  24030.50407529  .00000302  00000-0  33110-4 0  9998,2 56793  70.0028 123.8539 0002517 229.1786 130.9155 14.98327679 37729,6950.2,96.107,573.814,570.316,0.0
56793.0,STARLINK-6052,PAYLOAD,2024-01-30 13:42:00,14.98326203,0.0002851,70.0011,123.6846,256.4192,103.6649,-2.7647e-05,-4.23e-06,0.0,0 STARLINK-6052,1 56793U 23078AC  24030.57083819 -.00000423  00000-0 -27647-4 0  9991,2 56793  70.0011 123.6846 0002851 256.4192 103.6649 14.98326203 37474,6950.205,96.107,574.051,570.088,0.0
56793.0,STARLINK-6052,PAYLOAD,2024-01-30 15:18:08,14.98325829,0.0003011,70.0004,123.5145,266.3603,93.7212,-3.5668e-05,-5.18e-06,0.0,0 STARLINK-6052,1 56793U 23078AC  24030.63759898 -.00000518  00000-0 -35668-4 0  9992,2 56793  70.0004 123.5145 0003011 266.3603  93.7212 14.98325829 37482,6950.206,96.107,574.163,569.978,0.0
